[{"OBJECT_NAME":"LEMUR-2-AMANDA-SVANTE","OBJECT_ID":"2021-034B","EPOCH":"2026-03-09T18:37:58.823328","MEAN_MOTION":15.28469003,"ECCENTRICITY":0.00027027,"INCLINATION":97.5829,"RA_OF_ASC_NODE":144.8625,"ARG_OF_PERICENTER":205.4721,"MEAN_ANOMALY":154.6385,"EPHEMERIS_TYPE":0,"CLASSIFICATION_TYPE":"U","NORAD_CAT_ID":48269,"ELEMENT_SET_NO":999,"REV_AT_EPOCH":26584,"BSTAR":0.0011134246,"MEAN_MOTION_DOT":0.00030872,"MEAN_MOTION_DDOT":0},{"OBJECT_NAME":"STARLINK-33683","OBJECT_ID":"2025-076E","EPOCH":"2026-03-09T01:56:45.960864","MEAN_MOTION":15.27589005,"ECCENTRICITY":0.00021679,"INCLINATION":43.0035,"RA_OF_ASC_NODE":325.4548,"ARG_OF_PERICENTER":261.0365,"MEAN_ANOMALY":99.0241,"EPHEMERIS_TYPE":0,"CLASSIFICATION_TYPE":"U","NORAD_CAT_ID":63573,"ELEMENT_SET_NO":999,"REV_AT_EPOCH":5173,"BSTAR":0.0010565588,"MEAN_MOTION_DOT":0.00028935,"MEAN_MOTION_DDOT":0}]
