LEMUR-2-AMANDA-SVANTE   
1 48269U 21034B   26068.77637527  .00030872  00000+0  11134-2 0  9996
2 48269  97.5829 144.8625 0002703 205.4721 154.6385 15.28469003265849
STARLINK-33683          
1 63573U 25076E   26068.08108751  .00028935  00000+0  10566-2 0  9992
2 63573  43.0035 325.4548 0002167 261.0365  99.0241 15.27589005 51734
